NORAD_CAT_ID,OBJECT_NAME,OBJECT_TYPE,EPOCH,MEAN_MOTION,ECCENTRICITY,INCLINATION,RA_OF_ASC_NODE,ARG_OF_PERICENTER,MEAN_ANOMALY,BSTAR,MEAN_MOTION_DOT,MEAN_MOTION_DDOT,TLE_LINE0,TLE_LINE1,TLE_LINE2,SEMIMAJOR_AXIS,PERIOD,APOGEE,PERIGEE,DECAYED
54158.0,STARLINK-5297,PAYLOAD,2023-03-07 19:34:11,15.08853979,0.0001731,53.2139,262.8039,89.9912,270.1278,0.00048857,7.499e-05,0.0,0 STARLINK-5297,1 54158U 22141B   23066.81541266  .00007499  00000-0  48857-3 0  9997,2 54158  53.2139 262.8039 0001731  89.9912 270.1278 15.08853979 19976,6917.838,95.437,540.9,538.505,0.0
54158.0,STARLINK-5297,PAYLOAD,2023-03-08 19:24:59,15.08843567,0.0001926,53.2117,258.3439,82.0371,278.0839,0.00021641,3.158e-05,0.0,0 STARLINK-5297,1 54158U 22141B   23067.80901731  .00003158  00000-0  21641-3 0  9994,2 54158  53.2117 258.3439 0001926  82.0371 278.0839 15.08843567 20126,6917.869,95.437,541.067,538.402,0.0
54158.0,STARLINK-5297,PAYLOAD,2023-03-09 19:15:45,15.08859481,0.0001229,53.214,253.8809,59.2485,300.8628,0.00086786,0.00013558,0.0,0 STARLINK-5297,1 54158U 22141B   23068.80261460  .00013558  00000-0  86786-3 0  9999,2 54158  53.2140 253.8809 0001229  59.2485 300.8628 15.08859481 20279,6917.821,95.436,540.536,538.836,0.0
54158.0,STARLINK-5297,PAYLOAD,2023-03-10 07:58:51,15.08822076,9.82e-05,53.2171,251.5029,78.0651,282.0451,-0.00033435,-5.602e-05,0.0,0 STARLINK-5297,1 54158U 22141B   23069.33254219 -.00005602  00000-0 -33435-3 0  9998,2 54158  53.2171 251.5029 0000982  78.0651 282.0451 15.08822076 20355,6917.935,95.439,540.48,539.121,0.0
54158.0,STARLINK-5297,PAYLOAD,2023-03-10 19:06:32,15.08870866,0.0001439,53.2168,249.4207,83.2715,276.844,0.0007252,0.00011282,0.0,0 STARLINK-5297,1 54158U 22141B   23069.79620794  .00011282  00000-0  72520-3 0  9990,2 54158  53.2168 249.4207 0001439  83.2715 276.8440 15.08870866 20429,6917.786,95.436,540.647,538.656,0.0
54158.0,STARLINK-5297,PAYLOAD,2023-03-10 22:17:19,15.0884373,0.0001317,53.217,248.8265,72.8532,287.2605,0.00017077,2.431e-05,0.0,0 STARLINK-5297,1 54158U 22141B   23069.92869767  .00002431  00000-0  17077-3 0  9992,2 54158  53.2170 248.8265 0001317  72.8532 287.2605 15.08843730 20446,6917.869,95.437,540.645,538.823,0.0
54158.0,STARLINK-5297,PAYLOAD,2023-03-11 04:38:52,15.08834316,0.0001587,53.2177,247.6373,81.569,278.5482,-3.4112e-05,-8.31e-06,0.0,0 STARLINK-5297,1 54158U 22141B   23070.19366178 -.00000831  00000-0 -34112-4 0  9995,2 54158  53.2177 247.6373 0001587  81.5690 278.5482 15.08834316 20481,6917.898,95.438,540.861,538.665,0.0
54158.0,STARLINK-5297,PAYLOAD,2023-03-11 20:32:43,15.08848582,8.82e-05,53.2157,244.6636,97.0849,263.0243,0.00053779,8.283e-05,0.0,0 STARLINK-5297,1 54158U 22141B   23070.85605757  .00008283  00000-0  53779-3 0  9993,2 54158  53.2157 244.6636 0000882  97.0849 263.0243 15.08848582 20588,6917.854,95.437,540.329,539.109,0.0
54158.0,STARLINK-5297,PAYLOAD,2023-03-11 22:08:06,15.08851382,8.66e-05,53.2157,244.3663,91.2221,268.887,0.00041423,6.313e-05,0.0,0 STARLINK-5297,1 54158U 22141B   23070.92229561  .00006313  00000-0  41423-3 0  9991,2 54158  53.2157 244.3663 0000866  91.2221 268.8870 15.08851382 20599,6917.846,95.437,540.31,539.112,0.0
54158.0,STARLINK-5297,PAYLOAD,2023-03-12 12:26:35,15.08845193,0.0001227,53.2169,241.69,97.7334,262.3798,0.00034932,5.277e-05,0.0,0 STARLINK-5297,1 54158U 22141B   23071.51846191  .00005277  00000-0  34932-3 0  9996,2 54158  53.2169 241.6900 0001227  97.7334 262.3798 15.08845193 20685,6917.865,95.437,540.578,538.881,0.0
54158.0,STARLINK-5297,PAYLOAD,2023-03-12 20:23:30,15.08845051,0.0001154,53.2149,240.2019,81.6366,278.4757,0.00029324,4.383e-05,0.0,0 STARLINK-5297,1 54158U 22141B   23071.84966086  .00004383  00000-0  29324-3 0  9994,2 54158  53.2149 240.2019 0001154  81.6366 278.4757 15.08845051 20737,6917.865,95.437,540.528,538.932,0.0
54158.0,STARLINK-5297,PAYLOAD,2023-03-13 10:41:59,15.0883184,0.0001192,53.2162,237.5258,87.4618,272.651,4.1063e-05,3.66e-06,0.0,0 STARLINK-5297,1 54158U 22141B   23072.44582889  .00000366  00000-0  41063-4 0  9998,2 54158  53.2162 237.5258 0001192  87.4618 272.6510 15.08831840 20826,6917.905,95.438,540.595,538.946,0.0
54158.0,STARLINK-5297,PAYLOAD,2023-03-13 13:52:45,15.08832338,0.0001081,53.2154,236.9321,87.3192,272.7924,6.2158e-05,7.01e-06,0.0,0 STARLINK-5297,1 54158U 22141B   23072.57830939  .00000701  00000-0  62158-4 0  9995,2 54158  53.2154 236.9321 0001081  87.3192 272.7924 15.08832338 20849,6917.904,95.438,540.517,539.021,0.0
54158.0,STARLINK-5297,PAYLOAD,2023-03-14 10:32:46,15.08846267,0.000137,53.2148,233.0644,88.7568,271.3581,0.00041478,6.321e-05,0.0,0 STARLINK-5297,1 54158U 22141B   23073.43942975  .00006321  00000-0  41478-3 0  9990,2 54158  53.2148 233.0644 0001370  88.7568 271.3581 15.08846267 20975,6917.861,95.437,540.674,538.778,0.0
54158.0,STARLINK-5297,PAYLOAD,2023-03-14 20:05:05,15.08865427,0.0001586,53.2142,231.2812,78.5512,281.5659,0.00086062,0.00013445,0.0,0 STARLINK-5297,1 54158U 22141B   23073.83686360  .00013445  00000-0  86062-3 0  9990,2 54158  53.2142 231.2812 0001586  78.5512 281.5659 15.08865427 21037,6917.803,95.436,540.765,538.571,0.0
54158.0,STARLINK-5297,PAYLOAD,2023-03-15 04:02:01,15.08850751,0.0002422,53.2161,229.7961,79.1193,281.0071,0.00039366,5.984e-05,0.0,0 STARLINK-5297,1 54158U 22141B   23074.16806764  .00005984  00000-0  39366-3 0  9993,2 54158  53.2161 229.7961 0002422  79.1193 281.0071 15.08850751 21089,6917.848,95.437,541.388,538.037,0.0
54158.0,STARLINK-5297,PAYLOAD,2023-03-15 10:23:33,15.08857046,0.0001564,53.2142,228.6055,90.9347,269.1825,0.00037843,5.743e-05,0.0,0 STARLINK-5297,1 54158U 22141B   23074.43302144  .00005743  00000-0  37843-3 0  9997,2 54158  53.2142 228.6055 0001564  90.9347 269.1825 15.08857046 21121,6917.828,95.436,540.775,538.611,0.0
54158.0,STARLINK-5297,PAYLOAD,2023-03-15 19:55:51,15.08864177,0.0001611,53.2141,226.8189,106.8591,253.2578,0.00047924,7.352e-05,0.0,0 STARLINK-5297,1 54158U 22141B   23074.83045523  .00007352  00000-0  47924-3 0  9995,2 54158  53.2141 226.8189 0001611 106.8591 253.2578 15.08864177 21187,6917.806,95.436,540.786,538.557,0.0
54158.0,STARLINK-5297,PAYLOAD,2023-03-16 10:14:20,15.08830379,0.0001356,53.2143,224.1456,99.5451,260.5694,-1.4122e-05,-5.13e-06,0.0,0 STARLINK-5297,1 54158U 22141B   23075.42662449 -.00000513  00000-0 -14122-4 0  9992,2 54158  53.2143 224.1456 0001356  99.5451 260.5694 15.08830379 21273,6917.91,95.438,540.713,538.837,0.0
54158.0,STARLINK-5297,PAYLOAD,2023-03-16 16:35:53,15.08824745,9.87e-05,53.2148,222.9566,92.0201,268.0904,-1.6587e-05,-5.52e-06,0.0,0 STARLINK-5297,1 54158U 22141B   23075.69158828 -.00000552  00000-0 -16587-4 0  9992,2 54158  53.2148 222.9566 0000987  92.0201 268.0904 15.08824745 21318,6917.927,95.439,540.475,539.109,0.0
54158.0,STARLINK-5297,PAYLOAD,2023-03-17 02:08:12,15.08823952,0.0001211,53.211,221.1708,94.8067,265.3063,0.00039833,6.054e-05,0.0,0 STARLINK-5297,1 54158U 22141B   23076.08903404  .00006054  00000-0  39833-3 0  9993,2 54158  53.2110 221.1708 0001211  94.8067 265.3063 15.08823952 21378,6917.929,95.439,540.632,538.957,0.0
54158.0,STARLINK-5297,PAYLOAD,2023-03-17 10:05:08,15.08828626,0.0001259,53.2139,219.6858,94.2721,265.8415,0.00010751,1.423e-05,0.0,0 STARLINK-5297,1 54158U 22141B   23076.42023593  .00001423  00000-0  10751-3 0  9996,2 54158  53.2139 219.6858 0001259  94.2721 265.8415 15.08828626 21425,6917.915,95.438,540.651,538.909,0.0
54158.0,STARLINK-5297,PAYLOAD,2023-03-17 16:26:40,15.08838482,0.0001201,53.2138,218.4975,96.6165,263.4963,0.00036249,5.486e-05,0.0,0 STARLINK-5297,1 54158U 22141B   23076.68519447  .00005486  00000-0  36249-3 0  9995,2 54158  53.2138 218.4975 0001201  96.6165 263.4963 15.08838482 21463,6917.885,95.438,540.581,538.919,0.0
54158.0,STARLINK-5297,PAYLOAD,2023-03-18 01:58:59,15.08849408,0.0001042,53.2157,216.7126,97.1916,262.9194,0.00061572,9.527e-05,0.0,0 STARLINK-5297,1 54158U 22141B   23077.08263277  .00009527  00000-0  61572-3 0  9994,2 54158  53.2157 216.7126 0001042  97.1916 262.9194 15.08849408 21523,6917.852,95.437,540.437,538.996,0.0
54158.0,STARLINK-5297,PAYLOAD,2023-03-18 19:28:13,15.08865146,0.0001281,53.2158,213.4411,90.0941,270.0198,0.00061912,9.586e-05,0.0,0 STARLINK-5297,1 54158U 22141B   23077.81126466  .00009586  00000-0  61912-3 0  9996,2 54158  53.2158 213.4411 0001281  90.0941 270.0198 15.08865146 21633,6917.804,95.436,540.555,538.782,0.0
54158.0,STARLINK-5297,PAYLOAD,2023-03-19 01:49:46,15.08843588,0.0001258,53.2156,212.2532,103.9434,256.1698,-0.0001026,-1.921e-05,0.0,0 STARLINK-5297,1 54158U 22141B   23078.07622785 -.00001921  00000-0 -10260-3 0  9997,2 54158  53.2156 212.2532 0001258 103.9434 256.1698 15.08843588 21677,6917.869,95.437,540.605,538.864,0.0
54158.0,STARLINK-5297,PAYLOAD,2023-03-19 12:57:27,15.08845406,0.000139,53.2177,210.1721,106.8309,253.2836,3.5427e-05,2.76e-06,0.0,0 STARLINK-5297,1 54158U 22141B   23078.53990690  .00000276  00000-0  35427-4 0  9994,2 54158  53.2177 210.1721 0001390 106.8309 253.2836 15.08845406 21748,6917.864,95.437,540.69,538.767,0.0
54158.0,STARLINK-5297,PAYLOAD,2023-03-19 17:43:37,15.08855805,0.0001265,53.2161,209.2784,98.8736,261.2399,0.0004234,6.46e-05,0.0,0 STARLINK-5297,1 54158U 22141B   23078.73862427  .00006460  00000-0  42340-3 0  9994,2 54158  53.2161 209.2784 0001265  98.8736 261.2399 15.08855805 21774,6917.832,95.437,540.572,538.822,0.0
54158.0,STARLINK-5297,PAYLOAD,2023-03-20 01:40:33,15.08846736,0.000139,53.2159,207.7917,84.1,276.0151,0.00047788,7.327e-05,0.0,0 STARLINK-5297,1 54158U 22141B   23079.06982681  .00007327  00000-0  47788-3 0  9990,2 54158  53.2159 207.7917 0001390  84.1000 276.0151 15.08846736 21822,6917.86,95.437,540.686,538.763,0.0
54158.0,STARLINK-5297,PAYLOAD,2023-03-20 12:48:15,15.08835047,0.0001304,53.2164,205.7106,92.5908,267.5233,0.00038098,5.78e-05,0.0,0 STARLINK-5297,1 54158U 22141B   23079.53351193  .00005780  00000-0  38098-3 0  9995,2 54158  53.2164 205.7106 0001304  92.5908 267.5233 15.08835047 21897,6917.896,95.438,540.663,538.858,0.0
